[{"OBJECT_NAME":"ONEWEB-0067","OBJECT_ID":"2020-020B","EPOCH":"2026-03-09T22:07:45.158880","MEAN_MOTION":13.11414736,"ECCENTRICITY":0.00016272,"INCLINATION":87.8876,"RA_OF_ASC_NODE":40.7116,"ARG_OF_PERICENTER":80.8759,"MEAN_ANOMALY":279.2553,"EPHEMERIS_TYPE":0,"CLASSIFICATION_TYPE":"U","NORAD_CAT_ID":45425,"ELEMENT_SET_NO":999,"REV_AT_EPOCH":28972,"BSTAR":0.00052578292,"MEAN_MOTION_DOT":1.99e-6,"MEAN_MOTION_DDOT":0},{"OBJECT_NAME":"CZ-4C DEB","OBJECT_ID":"2012-029D","EPOCH":"2026-03-09T11:53:10.324032","MEAN_MOTION":13.1957689,"ECCENTRICITY":0.01306302,"INCLINATION":100.467,"RA_OF_ASC_NODE":185.3226,"ARG_OF_PERICENTER":228.0275,"MEAN_ANOMALY":130.9651,"EPHEMERIS_TYPE":0,"CLASSIFICATION_TYPE":"U","NORAD_CAT_ID":38662,"ELEMENT_SET_NO":999,"REV_AT_EPOCH":66031,"BSTAR":0.00043272861,"MEAN_MOTION_DOT":1.35e-6,"MEAN_MOTION_DDOT":0}]
